{
    "links": {
        "self": "http://www.neowsapp.com/rest/v1/neo/3608931?api_key=iIulBulltgU6a56xZRHN4H3l9WmuAYTsLGpBGhQ2"
    },
    "id": "3608931",
    "neo_reference_id": "3608931",
    "name": "(2012 SX20)",
    "designation": "2012 SX20",
    "nasa_jpl_url": "http://ssd.jpl.nasa.gov/sbdb.cgi?sstr=3608931",
    "absolute_magnitude_h": 22.1,
    "estimated_diameter": {
        "kilometers": {
            "estimated_diameter_min": 0.1010543415,
            "estimated_diameter_max": 0.2259643771
        },
        "meters": {
            "estimated_diameter_min": 101.054341542,
            "estimated_diameter_max": 225.9643771094
        },
        "miles": {
            "estimated_diameter_min": 0.0627922373,
            "estimated_diameter_max": 0.140407711
        },
        "feet": {
            "estimated_diameter_min": 331.5431259047,
            "estimated_diameter_max": 741.3529669956
        }
    },
    "is_potentially_hazardous_asteroid": false,
    "close_approach_data": [
        {
            "close_approach_date": "1989-08-20",
            "close_approach_date_full": "1989-Aug-20 09:15",
            "epoch_date_close_approach": 619607700000,
            "relative_velocity": {
                "kilometers_per_second": "7.0020925792",
                "kilometers_per_hour": "25207.5332851116",
                "miles_per_hour": "15662.9808904073"
            },
            "miss_distance": {
                "astronomical": "0.1799438732",
                "lunar": "69.9981666748",
                "kilometers": "26919220.150270084",
                "miles": "16726827.7680677992"
            },
            "orbiting_body": "Earth"
        },
        {
            "close_approach_date": "2012-08-19",
            "close_approach_date_full": "2012-Aug-19 17:04",
            "epoch_date_close_approach": 1345395840000,
            "relative_velocity": {
                "kilometers_per_second": "6.3516614665",
                "kilometers_per_hour": "22865.9812795175",
                "miles_per_hour": "14208.0315344869"
            },
            "miss_distance": {
                "astronomical": "0.1646650355",
                "lunar": "64.0546988095",
                "kilometers": "24633538.574274385",
                "miles": "15306571.094921113"
            },
            "orbiting_body": "Earth"
        },
        {
            "close_approach_date": "2035-08-20",
            "close_approach_date_full": "2035-Aug-20 09:43",
            "epoch_date_close_approach": 2071215780000,
            "relative_velocity": {
                "kilometers_per_second": "5.9263150766",
                "kilometers_per_hour": "21334.7342756986",
                "miles_per_hour": "13256.5741948084"
            },
            "miss_distance": {
                "astronomical": "0.1612757224",
                "lunar": "62.7362560136",
                "kilometers": "24126504.553751288",
                "miles": "14991514.7639242544"
            },
            "orbiting_body": "Earth"
        }
    ],
    "orbital_data": {
        "orbit_id": "9",
        "orbit_determination_date": "2017-04-06 08:48:55",
        "first_observation_date": "2012-09-19",
        "last_observation_date": "2012-10-16",
        "data_arc_in_days": 27,
        "observations_used": 51,
        "orbit_uncertainty": "7",
        "minimum_orbit_intersection": ".161535",
        "jupiter_tisserand_invariant": "4.057",
        "epoch_osculation": "2459000.5",
        "eccentricity": ".3469027741395874",
        "semi_major_axis": "1.742112073728053",
        "inclination": "9.753495136504341",
        "ascending_node_longitude": "353.4924906492604",
        "orbital_period": "839.8709557594842",
        "perihelion_distance": "1.137768562489722",
        "perihelion_argument": "316.5179178927704",
        "aphelion_distance": "2.346455584966384",
        "perihelion_time": "2458662.919356672393",
        "mean_anomaly": "144.6996479215566",
        "mean_motion": ".4286372775856462",
        "equinox": "J2000",
        "orbit_class": {
            "orbit_class_type": "AMO",
            "orbit_class_description": "Near-Earth asteroid orbits similar to that of 1221 Amor",
            "orbit_class_range": "1.017 AU < q (perihelion) < 1.3 AU"
        }
    },
    "is_sentry_object": false
}